{"type": "FeatureCollection", "features": [ {"type": "Feature", "properties": {"norad_id": 31768, "name": "FENGYUN 1C DEB", "group": "fengyun-1c-debris", "lat": -60.72879609506763, "lon": -126.07118740516181, "alt_km": 640.7869348633039, "timestamp": "2025-12-22T09:53:37.685644+00:00", "meta": {"OBJECT_NAME": "FENGYUN 1C DEB", "OBJECT_ID": "1999-025CFT", "EPOCH": "2025-12-21T23:50:09.772224", "MEAN_MOTION": 14.76422691, "ECCENTRICITY": 0.0026434, "INCLINATION": 99.0418, "RA_OF_ASC_NODE": 69.9649, "ARG_OF_PERICENTER": 311.5019, "MEAN_ANOMALY": 224.6341, "EPHEMERIS_TYPE": 0, "CLASSIFICATION_TYPE": "U", "NORAD_CAT_ID": 31768, "ELEMENT_SET_NO": 999, "REV_AT_EPOCH": 97009, "BSTAR": 0.0025949, "MEAN_MOTION_DOT": 0.00018128, "MEAN_MOTION_DDOT": 0}, "tle": {"line1": "1 31768U 99025CFT 25355.99316866  .00018128  00000+0  25949-2 0  9998", "line2": "2 31768  99.0418  69.9649 0026434 311.5019 224.6341 14.76422691970099"}}, "geometry": {"type": "Point", "coordinates": [-126.07118740516181, -60.72879609506763]}}, {"type": "Feature", "properties": {"norad_id": 31772, "name": "FENGYUN 1C DEB", "group": "fengyun-1c-debris", "lat": -79.24274168934264, "lon": 41.643882814177694, "alt_km": 959.8818351421723, "timestamp": "2025-12-22T09:53:37.685653+00:00", "meta": {"OBJECT_NAME": "FENGYUN 1C DEB", "OBJECT_ID": "1999-025CFX", "EPOCH": "2025-12-21T17:20:55.931712", "MEAN_MOTION": 14.11729705, "ECCENTRICITY": 0.0137181, "INCLINATION": 98.4737, "RA_OF_ASC_NODE": 272.682, "ARG_OF_PERICENTER": 88.103, "MEAN_ANOMALY": 273.5847, "EPHEMERIS_TYPE": 0, "CLASSIFICATION_TYPE": "U", "NORAD_CAT_ID": 31772, "ELEMENT_SET_NO": 999, "REV_AT_EPOCH": 71010, "BSTAR": 0.00087181, "MEAN_MOTION_DOT": 1.696e-05, "MEAN_MOTION_DDOT": 0}, "tle": {"line1": "1 31772U 99025CFX 25355.72286958  .00001696  00000+0  87181-3 0  9991", "line2": "2 31772  98.4737 272.6820 0137181  88.1030 273.5847 14.11729705710100"}}, "geometry": {"type": "Point", "coordinates": [41.643882814177694, -79.24274168934264]}}, {"type": "Feature", "properties": {"norad_id": 31773, "name": "FENGYUN 1C DEB", "group": "fengyun-1c-debris", "lat": -50.61328980508052, "lon": -0.6237225447721982, "alt_km": 684.4683097504076, "timestamp": "2025-12-22T09:53:37.685663+00:00", "meta": {"OBJECT_NAME": "FENGYUN 1C DEB", "OBJECT_ID": "1999-025CFY", "EPOCH": "2025-12-20T19:00:09.313344", "MEAN_MOTION": 14.73014348, "ECCENTRICITY": 0.00395484, "INCLINATION": 98.9495, "RA_OF_ASC_NODE": 346.5259, "ARG_OF_PERICENTER": 153.1663, "MEAN_ANOMALY": 207.1599, "EPHEMERIS_TYPE": 0, "CLASSIFICATION_TYPE": "U", "NORAD_CAT_ID": 31773, "ELEMENT_SET_NO": 999, "REV_AT_EPOCH": 65293, "BSTAR": 0.0011554154, "MEAN_MOTION_DOT": 7.461e-05, "MEAN_MOTION_DDOT": 0}, "tle": {"line1": "1 31773U 99025CFY 25354.79177446  .00007461  00000+0  11554-2 0  9995", "line2": "2 31773  98.9495 346.5259 0039548 153.1663 207.1599 14.73014348652938"}}, "geometry": {"type": "Point", "coordinates": [-0.6237225447721982, -50.61328980508052]}}, {"type": "Feature", "properties": {"norad_id": 31776, "name": "FENGYUN 1C DEB", "group": "fengyun-1c-debris", "lat": -66.01427736541122, "lon": 77.42123705429556, "alt_km": 799.372461249879, "timestamp": "2025-12-22T09:53:37.685673+00:00", "meta": {"OBJECT_NAME": "FENGYUN 1C DEB", "OBJECT_ID": "1999-025CGB", "EPOCH": "2025-12-22T03:34:27.360192", "MEAN_MOTION": 14.18599127, "ECCENTRICITY": 0.0054243, "INCLINATION": 99.0724, "RA_OF_ASC_NODE": 56.1061, "ARG_OF_PERICENTER": 307.3827, "MEAN_ANOMALY": 81.1299, "EPHEMERIS_TYPE": 0, "CLASSIFICATION_TYPE": "U", "NORAD_CAT_ID": 31776, "ELEMENT_SET_NO": 999, "REV_AT_EPOCH": 95014, "BSTAR": 0.0013054, "MEAN_MOTION_DOT": 2.697e-05, "MEAN_MOTION_DDOT": 0}, "tle": {"line1": "1 31776U 99025CGB 25356.14892778  .00002697  00000+0  13054-2 0  9994", "line2": "2 31776  99.0724  56.1061 0054243 307.3827  81.1299 14.18599127950140"}}, "geometry": {"type": "Point", "coordinates": [77.42123705429556, -66.01427736541122]}}, {"type": "Feature", "properties": {"norad_id": 31779, "name": "FENGYUN 1C DEB", "group": "fengyun-1c-debris", "lat": -43.18890180063066, "lon": -73.91200479284056, "alt_km": 904.0853351363185, "timestamp": "2025-12-22T09:53:37.685685+00:00", "meta": {"OBJECT_NAME": "FENGYUN 1C DEB", "OBJECT_ID": "1999-025CGE", "EPOCH": "2025-12-21T12:27:02.073600", "MEAN_MOTION": 14.41614232, "ECCENTRICITY": 0.0213652, "INCLINATION": 99.2993, "RA_OF_ASC_NODE": 276.2677, "ARG_OF_PERICENTER": 157.1459, "MEAN_ANOMALY": 203.9412, "EPHEMERIS_TYPE": 0, "CLASSIFICATION_TYPE": "U", "NORAD_CAT_ID": 31779, "ELEMENT_SET_NO": 999, "REV_AT_EPOCH": 97136, "BSTAR": 0.00018166, "MEAN_MOTION_DOT": 7.15e-06, "MEAN_MOTION_DDOT": 0}, "tle": {"line1": "1 31779U 99025CGE 25355.51877400  .00000715  00000+0  18166-3 0  9991", "line2": "2 31779  99.2993 276.2677 0213652 157.1459 203.9412 14.41614232971363"}}, "geometry": {"type": "Point", "coordinates": [-73.91200479284056, -43.18890180063066]}}, {"type": "Feature", "properties": {"norad_id": 31780, "name": "FENGYUN 1C DEB", "group": "fengyun-1c-debris", "lat": 10.631762190766244, "lon": -27.874410114615266, "alt_km": 750.7238758698759, "timestamp": "2025-12-22T09:53:37.685695+00:00", "meta": {"OBJECT_NAME": "FENGYUN 1C DEB", "OBJECT_ID": "1999-025CGF", "EPOCH": "2025-12-19T09:14:08.893824", "MEAN_MOTION": 14.69562649, "ECCENTRICITY": 0.0150519, "INCLINATION": 99.2856, "RA_OF_ASC_NODE": 146.9253, "ARG_OF_PERICENTER": 32.9124, "MEAN_ANOMALY": 328.1341, "EPHEMERIS_TYPE": 0, "CLASSIFICATION_TYPE": "U", "NORAD_CAT_ID": 31780, "ELEMENT_SET_NO": 999, "REV_AT_EPOCH": 98595, "BSTAR": 0.00017735, "MEAN_MOTION_DOT": 1.179e-05, "MEAN_MOTION_DDOT": 0}, "tle": {"line1": "1 31780U 99025CGF 25353.38482516  .00001179  00000+0  17735-3 0  9992", "line2": "2 31780  99.2856 146.9253 0150519  32.9124 328.1341 14.69562649985952"}}, "geometry": {"type": "Point", "coordinates": [-27.874410114615266, 10.631762190766244]}}, {"type": "Feature", "properties": {"norad_id": 31781, "name": "FENGYUN 1C DEB", "group": "fengyun-1c-debris", "lat": 49.630967125035255, "lon": -0.7362631464839106, "alt_km": 910.3458171770917, "timestamp": "2025-12-22T09:53:37.685705+00:00", "meta": {"OBJECT_NAME": "FENGYUN 1C DEB", "OBJECT_ID": "1999-025CGG", "EPOCH": "2025-12-21T17:58:10.717824", "MEAN_MOTION": 14.13089707, "ECCENTRICITY": 0.0203632, "INCLINATION": 99.4977, "RA_OF_ASC_NODE": 167.2029, "ARG_OF_PERICENTER": 248.9414, "MEAN_ANOMALY": 108.9873, "EPHEMERIS_TYPE": 0, "CLASSIFICATION_TYPE": "U", "NORAD_CAT_ID": 31781, "ELEMENT_SET_NO": 999, "REV_AT_EPOCH": 68475, "BSTAR": 0.0029138, "MEAN_MOTION_DOT": 6.584e-05, "MEAN_MOTION_DDOT": 0}, "tle": {"line1": "1 31781U 99025CGG 25355.74873516  .00006584  00000+0  29138-2 0  9993", "line2": "2 31781  99.4977 167.2029 0203632 248.9414 108.9873 14.13089707684758"}}, "geometry": {"type": "Point", "coordinates": [-0.7362631464839106, 49.630967125035255]}}, {"type": "Feature", "properties": {"norad_id": 31782, "name": "FENGYUN 1C DEB", "group": "fengyun-1c-debris", "lat": -40.68476040212991, "lon": 165.6702455564567, "alt_km": 721.6033624955144, "timestamp": "2025-12-22T09:53:37.685715+00:00", "meta": {"OBJECT_NAME": "FENGYUN 1C DEB", "OBJECT_ID": "1999-025CGH", "EPOCH": "2025-12-21T17:25:53.971104", "MEAN_MOTION": 14.36252255, "ECCENTRICITY": 0.0079141, "INCLINATION": 98.9044, "RA_OF_ASC_NODE": 157.216, "ARG_OF_PERICENTER": 330.4598, "MEAN_ANOMALY": 43.9449, "EPHEMERIS_TYPE": 0, "CLASSIFICATION_TYPE": "U", "NORAD_CAT_ID": 31782, "ELEMENT_SET_NO": 999, "REV_AT_EPOCH": 96820, "BSTAR": 0.00029283, "MEAN_MOTION_DOT": 8.38e-06, "MEAN_MOTION_DDOT": 0}, "tle": {"line1": "1 31782U 99025CGH 25355.72631911  .00000838  00000+0  29283-3 0  9991", "line2": "2 31782  98.9044 157.2160 0079141 330.4598  43.9449 14.36252255968206"}}, "geometry": {"type": "Point", "coordinates": [165.6702455564567, -40.68476040212991]}}, {"type": "Feature", "properties": {"norad_id": 31783, "name": "FENGYUN 1C DEB", "group": "fengyun-1c-debris", "lat": -16.343058739975515, "lon": 7.1786702915899445, "alt_km": 809.3379731948035, "timestamp": "2025-12-22T09:53:37.685725+00:00", "meta": {"OBJECT_NAME": "FENGYUN 1C DEB", "OBJECT_ID": "1999-025CGJ", "EPOCH": "2025-12-20T06:53:25.982592", "MEAN_MOTION": 14.08842598, "ECCENTRICITY": 0.01039748, "INCLINATION": 98.6049, "RA_OF_ASC_NODE": 2.6048, "ARG_OF_PERICENTER": 28.7009, "MEAN_ANOMALY": 343.3126, "EPHEMERIS_TYPE": 0, "CLASSIFICATION_TYPE": "U", "NORAD_CAT_ID": 31783, "ELEMENT_SET_NO": 999, "REV_AT_EPOCH": 89327, "BSTAR": 0.00037929066, "MEAN_MOTION_DOT": 6.47e-06, "MEAN_MOTION_DDOT": 0}, "tle": {"line1": "1 31783U 99025CGJ 25354.28710628  .00000647  00000+0  37929-3 0  9999", "line2": "2 31783  98.6049   2.6048 0103974  28.7009 343.3126 14.08842598893270"}}, "geometry": {"type": "Point", "coordinates": [7.1786702915899445, -16.343058739975515]}}, {"type": "Feature", "properties": {"norad_id": 31788, "name": "FENGYUN 1C DEB", "group": "fengyun-1c-debris", "lat": -52.88893611476072, "lon": 158.94763486693319, "alt_km": 1257.8490260709805, "timestamp": "2025-12-22T09:53:37.685735+00:00", "meta": {"OBJECT_NAME": "FENGYUN 1C DEB", "OBJECT_ID": "1999-025CGP", "EPOCH": "2025-12-19T16:12:03.386880", "MEAN_MOTION": 13.45122143, "ECCENTRICITY": 0.0461749, "INCLINATION": 102.5553, "RA_OF_ASC_NODE": 138.3955, "ARG_OF_PERICENTER": 71.4155, "MEAN_ANOMALY": 309.761, "EPHEMERIS_TYPE": 0, "CLASSIFICATION_TYPE": "U", "NORAD_CAT_ID": 31788, "ELEMENT_SET_NO": 999, "REV_AT_EPOCH": 90698, "BSTAR": 0.001479, "MEAN_MOTION_DOT": 1.6e-05, "MEAN_MOTION_DDOT": 0}, "tle": {"line1": "1 31788U 99025CGP 25353.67503920  .00001600  00000+0  14790-2 0  9991", "line2": "2 31788 102.5553 138.3955 0461749  71.4155 309.7610 13.45122143906982"}}, "geometry": {"type": "Point", "coordinates": [158.94763486693319, -52.88893611476072]}}]}